CCSDS_OMM_VERS = 2.0
CREATION_DATE  = 
ORIGINATOR     = 

OBJECT_NAME    = STARLINK-36399
OBJECT_ID      = 2026-022T
CENTER_NAME    = EARTH
REF_FRAME      = TEME
TIME_SYSTEM    = UTC
MEAN_ELEMENT_THEORY = SGP/SGP4

EPOCH          = 2026-02-14T06:00:02.000160
MEAN_MOTION    = 15.82230996
ECCENTRICITY   = .00015438
INCLINATION    = 97.2799
RA_OF_ASC_NODE = 78.0915
ARG_OF_PERICENTER = 73.0796
MEAN_ANOMALY   = 171.2852

EPHEMERIS_TYPE = 0
CLASSIFICATION_TYPE = U
NORAD_CAT_ID   = 67665
ELEMENT_SET_NO = 999
REV_AT_EPOCH   = 309
BSTAR          = -.89748594E-2
MEAN_MOTION_DOT = -.1606425E-1
MEAN_MOTION_DDOT = 0

CCSDS_OMM_VERS = 2.0
CREATION_DATE  = 
ORIGINATOR     = 

OBJECT_NAME    = STARLINK-36365
OBJECT_ID      = 2026-022U
CENTER_NAME    = EARTH
REF_FRAME      = TEME
TIME_SYSTEM    = UTC
MEAN_ELEMENT_THEORY = SGP/SGP4

EPOCH          = 2026-02-14T06:00:02.000160
MEAN_MOTION    = 15.82588839
ECCENTRICITY   = .00014278
INCLINATION    = 97.2799
RA_OF_ASC_NODE = 78.0944
ARG_OF_PERICENTER = 84.5860
MEAN_ANOMALY   = 166.5189

EPHEMERIS_TYPE = 0
CLASSIFICATION_TYPE = U
NORAD_CAT_ID   = 67666
ELEMENT_SET_NO = 999
REV_AT_EPOCH   = 312
BSTAR          = -.10251873E-1
MEAN_MOTION_DOT = -.1869001E-1
MEAN_MOTION_DDOT = 0

CCSDS_OMM_VERS = 2.0
CREATION_DATE  = 
ORIGINATOR     = 

OBJECT_NAME    = STARLINK-36622
OBJECT_ID      = 2026-022V
CENTER_NAME    = EARTH
REF_FRAME      = TEME
TIME_SYSTEM    = UTC
MEAN_ELEMENT_THEORY = SGP/SGP4

EPOCH          = 2026-02-14T06:00:02.000160
MEAN_MOTION    = 15.82845079
ECCENTRICITY   = .00011663
INCLINATION    = 97.2800
RA_OF_ASC_NODE = 78.0971
ARG_OF_PERICENTER = 92.2294
MEAN_ANOMALY   = 165.9838

EPHEMERIS_TYPE = 0
CLASSIFICATION_TYPE = U
NORAD_CAT_ID   = 67667
ELEMENT_SET_NO = 999
REV_AT_EPOCH   = 312
BSTAR          = -.99554967E-2
MEAN_MOTION_DOT = -.1840716E-1
MEAN_MOTION_DDOT = 0

CCSDS_OMM_VERS = 2.0
CREATION_DATE  = 
ORIGINATOR     = 

OBJECT_NAME    = STARLINK-36625
OBJECT_ID      = 2026-022W
CENTER_NAME    = EARTH
REF_FRAME      = TEME
TIME_SYSTEM    = UTC
MEAN_ELEMENT_THEORY = SGP/SGP4

EPOCH          = 2026-02-14T06:00:02.000160
MEAN_MOTION    = 15.83078277
ECCENTRICITY   = .00015716
INCLINATION    = 97.2797
RA_OF_ASC_NODE = 78.1012
ARG_OF_PERICENTER = 89.5497
MEAN_ANOMALY   = 176.4088

EPHEMERIS_TYPE = 0
CLASSIFICATION_TYPE = U
NORAD_CAT_ID   = 67668
ELEMENT_SET_NO = 999
REV_AT_EPOCH   = 312
BSTAR          = -.89565883E-2
MEAN_MOTION_DOT = -.166038E-1
MEAN_MOTION_DDOT = 0

CCSDS_OMM_VERS = 2.0
CREATION_DATE  = 
ORIGINATOR     = 

OBJECT_NAME    = STARLINK-36639
OBJECT_ID      = 2026-022X
CENTER_NAME    = EARTH
REF_FRAME      = TEME
TIME_SYSTEM    = UTC
MEAN_ELEMENT_THEORY = SGP/SGP4

EPOCH          = 2026-02-14T06:00:02.000160
MEAN_MOTION    = 15.83425379
ECCENTRICITY   = .00013018
INCLINATION    = 97.2795
RA_OF_ASC_NODE = 78.1033
ARG_OF_PERICENTER = 89.7349
MEAN_ANOMALY   = 183.5790

EPHEMERIS_TYPE = 0
CLASSIFICATION_TYPE = U
NORAD_CAT_ID   = 67669
ELEMENT_SET_NO = 999
REV_AT_EPOCH   = 312
BSTAR          = -.96564225E-2
MEAN_MOTION_DOT = -.1835959E-1
MEAN_MOTION_DDOT = 0

CCSDS_OMM_VERS = 2.0
CREATION_DATE  = 
ORIGINATOR     = 

OBJECT_NAME    = STARLINK-36596
OBJECT_ID      = 2026-022Y
CENTER_NAME    = EARTH
REF_FRAME      = TEME
TIME_SYSTEM    = UTC
MEAN_ELEMENT_THEORY = SGP/SGP4

EPOCH          = 2026-02-14T06:00:02.000160
MEAN_MOTION    = 15.83655737
ECCENTRICITY   = .00011299
INCLINATION    = 97.2790
RA_OF_ASC_NODE = 78.1050
ARG_OF_PERICENTER = 83.9328
MEAN_ANOMALY   = 195.4729

EPHEMERIS_TYPE = 0
CLASSIFICATION_TYPE = U
NORAD_CAT_ID   = 67670
ELEMENT_SET_NO = 999
REV_AT_EPOCH   = 312
BSTAR          = -.95407728E-2
MEAN_MOTION_DOT = -.1794757E-1
MEAN_MOTION_DDOT = 0

CCSDS_OMM_VERS = 2.0
CREATION_DATE  = 
ORIGINATOR     = 

OBJECT_NAME    = STARLINK-36297
OBJECT_ID      = 2026-022Z
CENTER_NAME    = EARTH
REF_FRAME      = TEME
TIME_SYSTEM    = UTC
MEAN_ELEMENT_THEORY = SGP/SGP4

EPOCH          = 2026-02-14T06:00:02.000160
MEAN_MOTION    = 15.84032455
ECCENTRICITY   = .00014819
INCLINATION    = 97.2785
RA_OF_ASC_NODE = 78.1092
ARG_OF_PERICENTER = 79.2027
MEAN_ANOMALY   = 210.3257

EPHEMERIS_TYPE = 0
CLASSIFICATION_TYPE = U
NORAD_CAT_ID   = 67671
ELEMENT_SET_NO = 999
REV_AT_EPOCH   = 312
BSTAR          = -.93378225E-2
MEAN_MOTION_DOT = -.1789794E-1
MEAN_MOTION_DDOT = 0

CCSDS_OMM_VERS = 2.0
CREATION_DATE  = 
ORIGINATOR     = 

OBJECT_NAME    = STARLINK-36616
OBJECT_ID      = 2026-022AA
CENTER_NAME    = EARTH
REF_FRAME      = TEME
TIME_SYSTEM    = UTC
MEAN_ELEMENT_THEORY = SGP/SGP4

EPOCH          = 2026-02-14T06:00:02.000160
MEAN_MOTION    = 15.83856125
ECCENTRICITY   = .00012949
INCLINATION    = 97.2790
RA_OF_ASC_NODE = 78.1074
ARG_OF_PERICENTER = 85.0503
MEAN_ANOMALY   = 199.7665

EPHEMERIS_TYPE = 0
CLASSIFICATION_TYPE = U
NORAD_CAT_ID   = 67672
ELEMENT_SET_NO = 999
REV_AT_EPOCH   = 312
BSTAR          = -.94306804E-2
MEAN_MOTION_DOT = -.1791819E-1
MEAN_MOTION_DDOT = 0

CCSDS_OMM_VERS = 2.0
CREATION_DATE  = 
ORIGINATOR     = 

OBJECT_NAME    = COSMOS 2600
OBJECT_ID      = 2026-023A
CENTER_NAME    = EARTH
REF_FRAME      = TEME
TIME_SYSTEM    = UTC
MEAN_ELEMENT_THEORY = SGP/SGP4

EPOCH          = 2026-02-14T06:16:46.530624
MEAN_MOTION    = 15.82232905
ECCENTRICITY   = .00017236
INCLINATION    = 96.6501
RA_OF_ASC_NODE = 121.6375
ARG_OF_PERICENTER = 60.2239
MEAN_ANOMALY   = 299.9203

EPHEMERIS_TYPE = 0
CLASSIFICATION_TYPE = U
NORAD_CAT_ID   = 67674
ELEMENT_SET_NO = 999
REV_AT_EPOCH   = 134
BSTAR          = .34831951E-3
MEAN_MOTION_DOT = .71656E-3
MEAN_MOTION_DDOT = 0

CCSDS_OMM_VERS = 2.0
CREATION_DATE  = 
ORIGINATOR     = 

OBJECT_NAME    = 2026-023B
OBJECT_ID      = 2026-023B
CENTER_NAME    = EARTH
REF_FRAME      = TEME
TIME_SYSTEM    = UTC
MEAN_ELEMENT_THEORY = SGP/SGP4

EPOCH          = 2026-02-14T06:13:36.374592
MEAN_MOTION    = 15.22400449
ECCENTRICITY   = .00175239
INCLINATION    = 96.6410
RA_OF_ASC_NODE = 120.9247
ARG_OF_PERICENTER = 214.1350
MEAN_ANOMALY   = 145.8763

EPHEMERIS_TYPE = 0
CLASSIFICATION_TYPE = U
NORAD_CAT_ID   = 67675
ELEMENT_SET_NO = 999
REV_AT_EPOCH   = 129
BSTAR          = .55909759E-3
MEAN_MOTION_DOT = .12922E-3
MEAN_MOTION_DDOT = 0

CCSDS_OMM_VERS = 2.0
CREATION_DATE  = 
ORIGINATOR     = 

OBJECT_NAME    = 2026-023C
OBJECT_ID      = 2026-023C
CENTER_NAME    = EARTH
REF_FRAME      = TEME
TIME_SYSTEM    = UTC
MEAN_ELEMENT_THEORY = SGP/SGP4

EPOCH          = 2026-02-14T06:13:10.294752
MEAN_MOTION    = 15.22465874
ECCENTRICITY   = .0018744
INCLINATION    = 96.6445
RA_OF_ASC_NODE = 120.9372
ARG_OF_PERICENTER = 203.6477
MEAN_ANOMALY   = 156.3902

EPHEMERIS_TYPE = 0
CLASSIFICATION_TYPE = U
NORAD_CAT_ID   = 67676
ELEMENT_SET_NO = 999
REV_AT_EPOCH   = 145
BSTAR          = .5527258E-3
MEAN_MOTION_DOT = .12806E-3
MEAN_MOTION_DDOT = 0

CCSDS_OMM_VERS = 2.0
CREATION_DATE  = 
ORIGINATOR     = 

OBJECT_NAME    = 2026-023D
OBJECT_ID      = 2026-023D
CENTER_NAME    = EARTH
REF_FRAME      = TEME
TIME_SYSTEM    = UTC
MEAN_ELEMENT_THEORY = SGP/SGP4

EPOCH          = 2026-02-14T06:14:03.213024
MEAN_MOTION    = 15.22338310
ECCENTRICITY   = .00188582
INCLINATION    = 96.6476
RA_OF_ASC_NODE = 120.9203
ARG_OF_PERICENTER = 208.9609
MEAN_ANOMALY   = 151.0585

EPHEMERIS_TYPE = 0
CLASSIFICATION_TYPE = U
NORAD_CAT_ID   = 67677
ELEMENT_SET_NO = 999
REV_AT_EPOCH   = 128
BSTAR          = .45651947E-3
MEAN_MOTION_DOT = .10525E-3
MEAN_MOTION_DDOT = 0

