STARLINK-36399          
1 67665U 26022T   26045.25002315 -.01606425  00000+0 -89749-2 0  9991
2 67665  97.2799  78.0915 0001543  73.0796 171.2852 15.82230996  3093
STARLINK-36365          
1 67666U 26022U   26045.25002315 -.01869001  00000+0 -10252-1 0  9995
2 67666  97.2799  78.0944 0001427  84.5860 166.5189 15.82588839  3122
STARLINK-36622          
1 67667U 26022V   26045.25002315 -.01840716  00000+0 -99555-2 0  9992
2 67667  97.2800  78.0971 0001166  92.2294 165.9838 15.82845079  3129
STARLINK-36625          
1 67668U 26022W   26045.25002315 -.01660380  00000+0 -89566-2 0  9991
2 67668  97.2797  78.1012 0001571  89.5497 176.4088 15.83078277  3129
STARLINK-36639          
1 67669U 26022X   26045.25002315 -.01835959  00000+0 -96564-2 0  9994
2 67669  97.2795  78.1033 0001301  89.7349 183.5790 15.83425379  3128
STARLINK-36596          
1 67670U 26022Y   26045.25002315 -.01794757  00000+0 -95408-2 0  9992
2 67670  97.2790  78.1050 0001129  83.9328 195.4729 15.83655737  3122
STARLINK-36297          
1 67671U 26022Z   26045.25002315 -.01789794  00000+0 -93378-2 0  9992
2 67671  97.2785  78.1092 0001481  79.2027 210.3257 15.84032455  3128
STARLINK-36616          
1 67672U 26022AA  26045.25002315 -.01791819  00000+0 -94307-2 0  9997
2 67672  97.2790  78.1074 0001294  85.0503 199.7665 15.83856125  3121
COSMOS 2600             
1 67674U 26023A   26045.26164966  .00071656  00000+0  34832-3 0  9997
2 67674  96.6501 121.6375 0001723  60.2239 299.9203 15.82232905  1348
2026-023B               
1 67675U 26023B   26045.25944878  .00012922  00000+0  55910-3 0  9996
2 67675  96.6410 120.9247 0017523 214.1350 145.8763 15.22400449  1295
2026-023C               
1 67676U 26023C   26045.25914693  .00012806  00000+0  55273-3 0  9992
2 67676  96.6445 120.9372 0018744 203.6477 156.3902 15.22465874  1455
2026-023D               
1 67677U 26023D   26045.25975941  .00010525  00000+0  45652-3 0  9992
2 67677  96.6476 120.9203 0018858 208.9609 151.0585 15.22338310  1288
